0 COSMOS 2251 DEB
1 33996U 93036GF  13282.27794553  .00009340  00000-0  34445-2 0  1089
2 33996 074.1165 221.0552 0107709 230.5496 281.5189 14.29419850241561
0 COSMOS 2251 DEB
1 33996U 93036GF  13283.53117049  .00008173  00000-0  30154-2 0  1095
2 33996 074.1164 218.7895 0107594 227.9399 250.5569 14.29434006241745
0 COSMOS 2251 DEB
1 33996U 93036GF  13286.26919542  .00005620  00000-0  20769-2 0  1114
2 33996 074.1165 213.8396 0107174 222.1581 300.6222 14.29466261242137
0 COSMOS 2251 DEB
1 33996U 93036GF  13288.22691153  .00009458  00000-0  34863-2 0  1121
2 33996 074.1170 210.3002 0106799 217.9650 295.4115 14.29492094242416
0 COSMOS 2251 DEB
1 33996U 93036GF  13290.18040054  .00007995  00000-0  29479-2 0  1139
2 33996 074.1170 206.7681 0106690 213.9097 268.5285 14.29519986242698
0 COSMOS 2251 DEB
1 33996U 93036GF  13291.23790521  .00007322  00000-0  27002-2 0  1142
2 33996 074.1170 204.8565 0106549 211.6259 310.8641 14.29534541242844
0 COSMOS 2251 DEB
1 33996U 93036GF  13292.75187362  .00006998  00000-0  25809-2 0  1155
2 33996 074.1166 202.1192 0106346 208.3496 182.4361 14.29553875243065
0 COSMOS 2251 DEB
1 33996U 93036GF  13293.80672587  .00007533  00000-0  27771-2 0  1167
2 33996 074.1164 200.2117 0106240 206.1058 211.2089 14.29565372243212
0 COSMOS 2251 DEB
1 33996U 93036GF  13295.15483916  .00007880  00000-0  29039-2 0  1178
2 33996 074.1161 197.7743 0106096 203.2646 309.2895 14.29580785243403
0 COSMOS 2251 DEB
1 33996U 93036GF  13296.20705397  .00008082  00000-0  29776-2 0  1189
2 33996 074.1158 195.8717 0105983 201.0249 324.6008 14.29596342243557
